{
  "type": "FeatureCollection",
  "features": [
    {
      "type": "Feature",
      "properties": {
        "norad_id": 37238,
        "name": "INTELSAT 17 (IS-17)",
        "group": "intelsat",
        "lat": -0.012535562691431834,
        "lon": -73.80201616207418,
        "alt_km": 35775.821782869454,
        "timestamp": "2025-12-16T08:59:42.826749+00:00",
        "meta_object_name": "INTELSAT 17 (IS-17)",
        "meta_object_id": "2010-065B",
        "meta_epoch": "2025-12-15T22:15:45.229248",
        "meta_mean_motion": 1.00271776,
        "meta_eccentricity": 0.00025255,
        "meta_inclination": 0.0119,
        "meta_ra_of_asc_node": 291.5796,
        "meta_arg_of_pericenter": 338.0448,
        "meta_mean_anomaly": 215.1462,
        "meta_ephemeris_type": 0,
        "meta_classification_type": "U",
        "meta_norad_cat_id": 37238,
        "meta_element_set_no": 999,
        "meta_rev_at_epoch": 5141,
        "meta_bstar": 0,
        "meta_mean_motion_dot": 2.1e-07,
        "meta_mean_motion_ddot": 0,
        "tle_line1": "1 37238U 10065B   25349.92760682  .00000021  00000+0  00000+0 0  9999",
        "tle_line2": "2 37238   0.0119 291.5796 0002525 338.0448 215.1462  1.00271776 51412"
      },
      "geometry": {
        "type": "Point",
        "coordinates": [
          -73.80201616207418,
          -0.012535562691431834
        ]
      }
    },
    {
      "type": "Feature",
      "properties": {
        "norad_id": 37392,
        "name": "INTELSAT 28 (IS-28)",
        "group": "intelsat",
        "lat": 1.2853163298045358,
        "lon": -171.52493619590354,
        "alt_km": 35783.261487712465,
        "timestamp": "2025-12-16T08:59:42.826767+00:00",
        "meta_object_name": "INTELSAT 28 (IS-28)",
        "meta_object_id": "2011-016A",
        "meta_epoch": "2025-12-15T20:05:05.242272",
        "meta_mean_motion": 1.00272608,
        "meta_eccentricity": 0.00036601,
        "meta_inclination": 1.3324,
        "meta_ra_of_asc_node": 85.022,
        "meta_arg_of_pericenter": 184.4045,
        "meta_mean_anomaly": 84.9076,
        "meta_ephemeris_type": 0,
        "meta_classification_type": "U",
        "meta_norad_cat_id": 37392,
        "meta_element_set_no": 999,
        "meta_rev_at_epoch": 5144,
        "meta_bstar": 0,
        "meta_mean_motion_dot": -2.03e-06,
        "meta_mean_motion_ddot": 0,
        "tle_line1": "1 37392U 11016A   25349.83686623 -.00000203  00000+0  00000+0 0  9992",
        "tle_line2": "2 37392   1.3324  85.0220 0003660 184.4045  84.9076  1.00272608 51441"
      },
      "geometry": {
        "type": "Point",
        "coordinates": [
          -171.52493619590354,
          1.2853163298045358
        ]
      }
    },
    {
      "type": "Feature",
      "properties": {
        "norad_id": 37834,
        "name": "INTELSAT 18 (IS-18)",
        "group": "intelsat",
        "lat": 0.018283951563338348,
        "lon": 40.19413157367808,
        "alt_km": 35789.71488903933,
        "timestamp": "2025-12-16T08:59:42.826779+00:00",
        "meta_object_name": "INTELSAT 18 (IS-18)",
        "meta_object_id": "2011-056A",
        "meta_epoch": "2025-12-15T19:22:49.704672",
        "meta_mean_motion": 1.00272258,
        "meta_eccentricity": 0.00016788,
        "meta_inclination": 0.002,
        "meta_ra_of_asc_node": 4.2129,
        "meta_arg_of_pericenter": 273.691,
        "meta_mean_anomaly": 277.504,
        "meta_ephemeris_type": 0,
        "meta_classification_type": "U",
        "meta_norad_cat_id": 37834,
        "meta_element_set_no": 999,
        "meta_rev_at_epoch": 5197,
        "meta_bstar": 0,
        "meta_mean_motion_dot": 7.5e-07,
        "meta_mean_motion_ddot": 0,
        "tle_line1": "1 37834U 11056A   25349.80751973  .00000075  00000+0  00000+0 0  9991",
        "tle_line2": "2 37834   0.0020   4.2129 0001678 273.6910 277.5040  1.00272258 51971"
      },
      "geometry": {
        "type": "Point",
        "coordinates": [
          40.19413157367808,
          0.018283951563338348
        ]
      }
    },
    {
      "type": "Feature",
      "properties": {
        "norad_id": 38098,
        "name": "INTELSAT 22 (IS-22)",
        "group": "intelsat",
        "lat": -0.02212739333845993,
        "lon": -67.6960315890308,
        "alt_km": 35779.335417728726,
        "timestamp": "2025-12-16T08:59:42.826791+00:00",
        "meta_object_name": "INTELSAT 22 (IS-22)",
        "meta_object_id": "2012-011A",
        "meta_epoch": "2025-12-15T22:17:30.061824",
        "meta_mean_motion": 1.00271356,
        "meta_eccentricity": 0.00017551,
        "meta_inclination": 0.0042,
        "meta_ra_of_asc_node": 351.9577,
        "meta_arg_of_pericenter": 277.8954,
        "meta_mean_anomaly": 221.4628,
        "meta_ephemeris_type": 0,
        "meta_classification_type": "U",
        "meta_norad_cat_id": 38098,
        "meta_element_set_no": 999,
        "meta_rev_at_epoch": 535,
        "meta_bstar": 0,
        "meta_mean_motion_dot": -3.6e-07,
        "meta_mean_motion_ddot": 0,
        "tle_line1": "1 38098U 12011A   25349.92882016 -.00000036  00000+0  00000+0 0  9990",
        "tle_line2": "2 38098   0.0042 351.9577 0001755 277.8954 221.4628  1.00271356  5356"
      },
      "geometry": {
        "type": "Point",
        "coordinates": [
          -67.6960315890308,
          -0.02212739333845993
        ]
      }
    },
    {
      "type": "Feature",
      "properties": {
        "norad_id": 38356,
        "name": "INTELSAT 19 (IS-19)",
        "group": "intelsat",
        "lat": 0.025245083676391843,
        "lon": 26.230677543517665,
        "alt_km": 35791.23414822524,
        "timestamp": "2025-12-16T08:59:42.826804+00:00",
        "meta_object_name": "INTELSAT 19 (IS-19)",
        "meta_object_id": "2012-030A",
        "meta_epoch": "2025-12-15T21:01:29.839584",
        "meta_mean_motion": 1.00271898,
        "meta_eccentricity": 0.00032083,
        "meta_inclination": 0.0089,
        "meta_ra_of_asc_node": 335.2948,
        "meta_arg_of_pericenter": 298.57,
        "meta_mean_anomaly": 292.2976,
        "meta_ephemeris_type": 0,
        "meta_classification_type": "U",
        "meta_norad_cat_id": 38356,
        "meta_element_set_no": 999,
        "meta_rev_at_epoch": 4861,
        "meta_bstar": 0,
        "meta_mean_motion_dot": -3.4e-07,
        "meta_mean_motion_ddot": 0,
        "tle_line1": "1 38356U 12030A   25349.87603981 -.00000034  00000+0  00000+0 0  9992",
        "tle_line2": "2 38356   0.0089 335.2948 0003208 298.5700 292.2976  1.00271898 48614"
      },
      "geometry": {
        "type": "Point",
        "coordinates": [
          26.230677543517665,
          0.025245083676391843
        ]
      }
    },
    {
      "type": "Feature",
      "properties": {
        "norad_id": 38740,
        "name": "INTELSAT 20 (IS-20)",
        "group": "intelsat",
        "lat": -0.006540790376797078,
        "lon": -71.29923203520647,
        "alt_km": 35791.49610949285,
        "timestamp": "2025-12-16T08:59:42.826817+00:00",
        "meta_object_name": "INTELSAT 20 (IS-20)",
        "meta_object_id": "2012-043A",
        "meta_epoch": "2025-12-15T22:16:22.668960",
        "meta_mean_motion": 1.00267038,
        "meta_eccentricity": 0.00029308,
        "meta_inclination": 0.0054,
        "meta_ra_of_asc_node": 65.4613,
        "meta_arg_of_pericenter": 113.6501,
        "meta_mean_anomaly": 308.3028,
        "meta_ephemeris_type": 0,
        "meta_classification_type": "U",
        "meta_norad_cat_id": 38740,
        "meta_element_set_no": 999,
        "meta_rev_at_epoch": 4891,
        "meta_bstar": 0,
        "meta_mean_motion_dot": -1e-08,
        "meta_mean_motion_ddot": 0,
        "tle_line1": "1 38740U 12043A   25349.92804015 -.00000001  00000+0  00000+0 0  9994",
        "tle_line2": "2 38740   0.0054  65.4613 0002930 113.6501 308.3028  1.00267038 48912"
      },
      "geometry": {
        "type": "Point",
        "coordinates": [
          -71.29923203520647,
          -0.006540790376797078
        ]
      }
    },
    {
      "type": "Feature",
      "properties": {
        "norad_id": 38749,
        "name": "INTELSAT 21 (IS-21)",
        "group": "intelsat",
        "lat": 0.026196712291884954,
        "lon": 162.1669964532315,
        "alt_km": 35787.78562668266,
        "timestamp": "2025-12-16T08:59:42.826829+00:00",
        "meta_object_name": "INTELSAT 21 (IS-21)",
        "meta_object_id": "2012-045A",
        "meta_epoch": "2025-12-15T21:40:18.622848",
        "meta_mean_motion": 1.00271347,
        "meta_eccentricity": 0.00016523,
        "meta_inclination": 0.0356,
        "meta_ra_of_asc_node": 78.6306,
        "meta_arg_of_pericenter": 186.2147,
        "meta_mean_anomaly": 87.0369,
        "meta_ephemeris_type": 0,
        "meta_classification_type": "U",
        "meta_norad_cat_id": 38749,
        "meta_element_set_no": 999,
        "meta_rev_at_epoch": 4868,
        "meta_bstar": 0,
        "meta_mean_motion_dot": -2.62e-06,
        "meta_mean_motion_ddot": 0,
        "tle_line1": "1 38749U 12045A   25349.90299332 -.00000262  00000+0  00000+0 0  9992",
        "tle_line2": "2 38749   0.0356  78.6306 0001652 186.2147  87.0369  1.00271347 48684"
      },
      "geometry": {
        "type": "Point",
        "coordinates": [
          162.1669964532315,
          0.026196712291884954
        ]
      }
    }
  ]
}